{
"type": "FeatureCollection",
"crs": { "type": "name", "properties": { "name": "urn:ogc:def:crs:OGC:1.3:CRS84" } },
"features": [
{ "type": "Feature", "properties": { "highway": "secondary" }, "geometry": { "type": "LineString", "coordinates": [ [ -73.9628734, 40.7992437 ], [ -73.9627461, 40.7991884 ] ] } },
{ "type": "Feature", "properties": { "highway": "primary" }, "geometry": { "type": "LineString", "coordinates": [ [ -73.9628734, 40.7992437 ], [ -73.9627992, 40.7993438 ] ] } },
{ "type": "Feature", "properties": { "highway": "primary" }, "geometry": { "type": "LineString", "coordinates": [ [ -73.9628734, 40.7992437 ], [ -73.9629411, 40.7991518 ] ] } },
{ "type": "Feature", "properties": { "highway": "secondary" }, "geometry": { "type": "LineString", "coordinates": [ [ -73.9628734, 40.7992437 ], [ -73.963003, 40.7992988 ] ] } },
{ "type": "Feature", "properties": { "highway": "primary" }, "geometry": { "type": "LineString", "coordinates": [ [ -73.9656909, 40.8004295 ], [ -73.9656174, 40.8005311 ] ] } },
{ "type": "Feature", "properties": { "highway": "secondary" }, "geometry": { "type": "LineString", "coordinates": [ [ -73.9656909, 40.8004295 ], [ -73.9658448, 40.8004944 ] ] } },
{ "type": "Feature", "properties": { "highway": "secondary" }, "geometry": { "type": "LineString", "coordinates": [ [ -73.9656909, 40.8004295 ], [ -73.9655938, 40.8003886 ] ] } },
{ "type": "Feature", "properties": { "highway": "primary" }, "geometry": { "type": "LineString", "coordinates": [ [ -73.9656909, 40.8004295 ], [ -73.9657605, 40.8003345 ] ] } },
{ "type": "Feature", "properties": { "highway": "secondary" }, "geometry": { "type": "LineString", "coordinates": [ [ -73.9679955, 40.8013981 ], [ -73.9677649, 40.8013033 ] ] } },
{ "type": "Feature", "properties": { "highway": "primary" }, "geometry": { "type": "LineString", "coordinates": [ [ -73.9679955, 40.8013981 ], [ -73.9680091, 40.801282 ] ] } },
{ "type": "Feature", "properties": { "highway": "primary" }, "geometry": { "type": "LineString", "coordinates": [ [ -73.9679955, 40.8013981 ], [ -73.9679861, 40.8015282 ] ] } },
{ "type": "Feature", "properties": { "highway": "residential" }, "geometry": { "type": "LineString", "coordinates": [ [ -73.9568234, 40.8126219 ], [ -73.9569537, 40.8126767 ] ] } },
{ "type": "Feature", "properties": { "highway": "secondary" }, "geometry": { "type": "LineString", "coordinates": [ [ -73.9568234, 40.8126219 ], [ -73.956775, 40.8126893 ] ] } },
{ "type": "Feature", "properties": { "highway": "secondary" }, "geometry": { "type": "LineString", "coordinates": [ [ -73.9568234, 40.8126219 ], [ -73.9568629, 40.8125675 ] ] } },
{ "type": "Feature", "properties": { "highway": "residential" }, "geometry": { "type": "LineString", "coordinates": [ [ -73.9598, 40.8138218 ], [ -73.9598901, 40.8138544 ] ] } },
{ "type": "Feature", "properties": { "highway": "primary" }, "geometry": { "type": "LineString", "coordinates": [ [ -73.9598, 40.8138218 ], [ -73.9598626, 40.8137371 ] ] } },
{ "type": "Feature", "properties": { "highway": "primary" }, "geometry": { "type": "LineString", "coordinates": [ [ -73.9598, 40.8138218 ], [ -73.9597454, 40.813898 ] ] } },
{ "type": "Feature", "properties": { "highway": "residential" }, "geometry": { "type": "LineString", "coordinates": [ [ -73.9598, 40.8138218 ], [ -73.9596999, 40.8137856 ], [ -73.9595608, 40.8137352 ] ] } },
{ "type": "Feature", "properties": { "highway": "residential" }, "geometry": { "type": "LineString", "coordinates": [ [ -73.9606929, 40.814184 ], [ -73.9606112, 40.8141507 ] ] } },
{ "type": "Feature", "properties": { "highway": "residential" }, "geometry": { "type": "LineString", "coordinates": [ [ -73.9606929, 40.814184 ], [ -73.9606367, 40.8142617 ] ] } },
{ "type": "Feature", "properties": { "highway": "residential" }, "geometry": { "type": "LineString", "coordinates": [ [ -73.9606929, 40.814184 ], [ -73.9607362, 40.8141248 ] ] } },
{ "type": "Feature", "properties": { "highway": "pedestrian" }, "geometry": { "type": "LineString", "coordinates": [ [ -73.9580529, 40.8003561 ], [ -73.9580231, 40.8002879 ] ] } },
{ "type": "Feature", "properties": { "highway": "secondary" }, "geometry": { "type": "LineString", "coordinates": [ [ -73.9580529, 40.8003561 ], [ -73.9580086, 40.8003745 ], [ -73.9579755, 40.800394 ], [ -73.957941, 40.8004183 ], [ -73.9579084, 40.800448 ], [ -73.957883, 40.8004838 ], [ -73.957867, 40.8005207 ] ] } },
{ "type": "Feature", "properties": { "highway": "secondary" }, "geometry": { "type": "LineString", "coordinates": [ [ -73.9580529, 40.8003561 ], [ -73.9581045, 40.8003438 ], [ -73.9581365, 40.8003406 ], [ -73.9581827, 40.8003376 ], [ -73.9582265, 40.8003401 ], [ -73.958262, 40.8003455 ], [ -73.9582977, 40.800355 ], [ -73.9583313, 40.8003679 ] ] } },
{ "type": "Feature", "properties": { "highway": "residential" }, "geometry": { "type": "LineString", "coordinates": [ [ -73.9679062, 40.8022515 ], [ -73.9676859, 40.8021586 ] ] } },
{ "type": "Feature", "properties": { "highway": "primary" }, "geometry": { "type": "LineString", "coordinates": [ [ -73.9679062, 40.8022515 ], [ -73.9678885, 40.8023174 ] ] } },
{ "type": "Feature", "properties": { "highway": "primary" }, "geometry": { "type": "LineString", "coordinates": [ [ -73.9679062, 40.8022515 ], [ -73.9679194, 40.8021783 ] ] } },
{ "type": "Feature", "properties": { "highway": "primary" }, "geometry": { "type": "LineString", "coordinates": [ [ -73.9672436, 40.8036046 ], [ -73.9672783, 40.8035643 ] ] } },
{ "type": "Feature", "properties": { "highway": "primary" }, "geometry": { "type": "LineString", "coordinates": [ [ -73.9672436, 40.8036046 ], [ -73.9671937, 40.803667 ] ] } },
{ "type": "Feature", "properties": { "highway": "residential" }, "geometry": { "type": "LineString", "coordinates": [ [ -73.9672436, 40.8036046 ], [ -73.9673519, 40.8036511 ] ] } },
{ "type": "Feature", "properties": { "highway": "residential" }, "geometry": { "type": "LineString", "coordinates": [ [ -73.9672436, 40.8036046 ], [ -73.9670442, 40.8035201 ] ] } },
{ "type": "Feature", "properties": { "highway": "secondary" }, "geometry": { "type": "LineString", "coordinates": [ [ -73.9667983, 40.8042152 ], [ -73.9669068, 40.8042606 ] ] } },
{ "type": "Feature", "properties": { "highway": "primary" }, "geometry": { "type": "LineString", "coordinates": [ [ -73.9667983, 40.8042152 ], [ -73.9668692, 40.8041254 ] ] } },
{ "type": "Feature", "properties": { "highway": "secondary" }, "geometry": { "type": "LineString", "coordinates": [ [ -73.9667983, 40.8042152 ], [ -73.9666013, 40.8041328 ] ] } },
{ "type": "Feature", "properties": { "highway": "primary" }, "geometry": { "type": "LineString", "coordinates": [ [ -73.9667983, 40.8042152 ], [ -73.9667429, 40.8042983 ], [ -73.9667338, 40.8043103 ] ] } },
{ "type": "Feature", "properties": { "highway": "residential" }, "geometry": { "type": "LineString", "coordinates": [ [ -73.9663136, 40.8048633 ], [ -73.9661339, 40.8047876 ] ] } },
{ "type": "Feature", "properties": { "highway": "residential" }, "geometry": { "type": "LineString", "coordinates": [ [ -73.9663136, 40.8048633 ], [ -73.9664335, 40.8049141 ] ] } },
{ "type": "Feature", "properties": { "highway": "primary" }, "geometry": { "type": "LineString", "coordinates": [ [ -73.9663136, 40.8048633 ], [ -73.9663514, 40.8048129 ] ] } },
{ "type": "Feature", "properties": { "highway": "primary" }, "geometry": { "type": "LineString", "coordinates": [ [ -73.9663136, 40.8048633 ], [ -73.9662673, 40.8049272 ] ] } },
{ "type": "Feature", "properties": { "highway": "residential" }, "geometry": { "type": "LineString", "coordinates": [ [ -73.9658601, 40.8054904 ], [ -73.9659834, 40.8055424 ] ] } },
{ "type": "Feature", "properties": { "highway": "primary" }, "geometry": { "type": "LineString", "coordinates": [ [ -73.9658601, 40.8054904 ], [ -73.9658127, 40.8055559 ] ] } },
{ "type": "Feature", "properties": { "highway": "residential" }, "geometry": { "type": "LineString", "coordinates": [ [ -73.9658601, 40.8054904 ], [ -73.9657608, 40.8054486 ], [ -73.9656735, 40.8054119 ] ] } },
{ "type": "Feature", "properties": { "highway": "primary" }, "geometry": { "type": "LineString", "coordinates": [ [ -73.9658601, 40.8054904 ], [ -73.9658946, 40.8054427 ], [ -73.9658992, 40.8054364 ] ] } },
{ "type": "Feature", "properties": { "highway": "primary" }, "geometry": { "type": "LineString", "coordinates": [ [ -73.9654027, 40.8061176 ], [ -73.965354, 40.8061847 ] ] } },
{ "type": "Feature", "properties": { "highway": "residential" }, "geometry": { "type": "LineString", "coordinates": [ [ -73.9654027, 40.8061176 ], [ -73.9655127, 40.8061638 ] ] } },
{ "type": "Feature", "properties": { "highway": "primary" }, "geometry": { "type": "LineString", "coordinates": [ [ -73.9654027, 40.8061176 ], [ -73.9654375, 40.80607 ] ] } },
{ "type": "Feature", "properties": { "highway": "residential" }, "geometry": { "type": "LineString", "coordinates": [ [ -73.9654027, 40.8061176 ], [ -73.9653409, 40.8060918 ], [ -73.9652167, 40.8060401 ] ] } },
{ "type": "Feature", "properties": { "highway": "residential" }, "geometry": { "type": "LineString", "coordinates": [ [ -73.9649437, 40.8067507 ], [ -73.9650606, 40.8068009 ] ] } },
{ "type": "Feature", "properties": { "highway": "primary" }, "geometry": { "type": "LineString", "coordinates": [ [ -73.9649437, 40.8067507 ], [ -73.9649807, 40.8066972 ] ] } },
{ "type": "Feature", "properties": { "highway": "primary" }, "geometry": { "type": "LineString", "coordinates": [ [ -73.9649437, 40.8067507 ], [ -73.9648983, 40.8068119 ] ] } },
{ "type": "Feature", "properties": { "highway": "residential" }, "geometry": { "type": "LineString", "coordinates": [ [ -73.9649437, 40.8067507 ], [ -73.964875, 40.8067224 ], [ -73.9647589, 40.8066746 ] ] } },
{ "type": "Feature", "properties": { "highway": "residential" }, "geometry": { "type": "LineString", "coordinates": [ [ -73.9644893, 40.8073865 ], [ -73.9645828, 40.8074258 ] ] } },
{ "type": "Feature", "properties": { "highway": "primary" }, "geometry": { "type": "LineString", "coordinates": [ [ -73.9644893, 40.8073865 ], [ -73.9644543, 40.8074394 ] ] } },
{ "type": "Feature", "properties": { "highway": "primary" }, "geometry": { "type": "LineString", "coordinates": [ [ -73.9644893, 40.8073865 ], [ -73.9645294, 40.8073293 ] ] } },
{ "type": "Feature", "properties": { "highway": "residential" }, "geometry": { "type": "LineString", "coordinates": [ [ -73.9644893, 40.8073865 ], [ -73.9642951, 40.8073049 ] ] } },
{ "type": "Feature", "properties": { "highway": "primary" }, "geometry": { "type": "LineString", "coordinates": [ [ -73.9616769, 40.8112551 ], [ -73.9617209, 40.8111935 ] ] } },
{ "type": "Feature", "properties": { "highway": "primary" }, "geometry": { "type": "LineString", "coordinates": [ [ -73.9616769, 40.8112551 ], [ -73.9616351, 40.8113137 ] ] } },
{ "type": "Feature", "properties": { "highway": "residential" }, "geometry": { "type": "LineString", "coordinates": [ [ -73.9616769, 40.8112551 ], [ -73.9615698, 40.811209 ], [ -73.9614867, 40.8111729 ] ] } },
{ "type": "Feature", "properties": { "highway": "residential" }, "geometry": { "type": "LineString", "coordinates": [ [ -73.9588371, 40.8151597 ], [ -73.9589133, 40.8151925 ] ] } },
{ "type": "Feature", "properties": { "highway": "primary" }, "geometry": { "type": "LineString", "coordinates": [ [ -73.9588371, 40.8151597 ], [ -73.9588982, 40.8150772 ] ] } },
{ "type": "Feature", "properties": { "highway": "residential" }, "geometry": { "type": "LineString", "coordinates": [ [ -73.9588371, 40.8151597 ], [ -73.9586275, 40.8150353 ] ] } },
{ "type": "Feature", "properties": { "highway": "primary" }, "geometry": { "type": "LineString", "coordinates": [ [ -73.9588371, 40.8151597 ], [ -73.9587885, 40.8152328 ] ] } },
{ "type": "Feature", "properties": { "highway": "residential" }, "geometry": { "type": "LineString", "coordinates": [ [ -73.952857, 40.806709 ], [ -73.953003, 40.8067712 ] ] } },
{ "type": "Feature", "properties": { "highway": "secondary" }, "geometry": { "type": "LineString", "coordinates": [ [ -73.952857, 40.806709 ], [ -73.9528616, 40.8067909 ] ] } },
{ "type": "Feature", "properties": { "highway": "secondary" }, "geometry": { "type": "LineString", "coordinates": [ [ -73.952857, 40.806709 ], [ -73.9528528, 40.8066394 ] ] } },
{ "type": "Feature", "properties": { "highway": "residential" }, "geometry": { "type": "LineString", "coordinates": [ [ -73.9534985, 40.8069824 ], [ -73.9533911, 40.8069366 ] ] } },
{ "type": "Feature", "properties": { "highway": "residential" }, "geometry": { "type": "LineString", "coordinates": [ [ -73.9534985, 40.8069824 ], [ -73.9536197, 40.8070331 ] ] } },
{ "type": "Feature", "properties": { "highway": "secondary" }, "geometry": { "type": "LineString", "coordinates": [ [ -73.9534985, 40.8069824 ], [ -73.953537, 40.8069295 ] ] } },
{ "type": "Feature", "properties": { "highway": "secondary" }, "geometry": { "type": "LineString", "coordinates": [ [ -73.9534985, 40.8069824 ], [ -73.9534547, 40.8070424 ] ] } },
{ "type": "Feature", "properties": { "highway": "residential" }, "geometry": { "type": "LineString", "coordinates": [ [ -73.9549478, 40.8075988 ], [ -73.9548557, 40.8075596 ] ] } },
{ "type": "Feature", "properties": { "highway": "residential" }, "geometry": { "type": "LineString", "coordinates": [ [ -73.9549478, 40.8075988 ], [ -73.9550456, 40.8076382 ] ] } },
{ "type": "Feature", "properties": { "highway": "residential" }, "geometry": { "type": "LineString", "coordinates": [ [ -73.9549478, 40.8075988 ], [ -73.9549087, 40.8076531 ] ] } },
{ "type": "Feature", "properties": { "highway": "residential" }, "geometry": { "type": "LineString", "coordinates": [ [ -73.9549478, 40.8075988 ], [ -73.9549884, 40.8075436 ] ] } },
{ "type": "Feature", "properties": { "highway": "residential" }, "geometry": { "type": "LineString", "coordinates": [ [ -73.9563424, 40.808178 ], [ -73.9562212, 40.8081289 ] ] } },
{ "type": "Feature", "properties": { "highway": "residential" }, "geometry": { "type": "LineString", "coordinates": [ [ -73.9563424, 40.808178 ], [ -73.956297, 40.80824 ] ] } },
{ "type": "Feature", "properties": { "highway": "residential" }, "geometry": { "type": "LineString", "coordinates": [ [ -73.9563424, 40.808178 ], [ -73.9563825, 40.8081262 ] ] } },
{ "type": "Feature", "properties": { "highway": "residential" }, "geometry": { "type": "LineString", "coordinates": [ [ -73.9542758, 40.8110093 ], [ -73.9543741, 40.8111053 ] ] } },
{ "type": "Feature", "properties": { "highway": "residential" }, "geometry": { "type": "LineString", "coordinates": [ [ -73.9542758, 40.8110093 ], [ -73.9541829, 40.8109201 ] ] } },
{ "type": "Feature", "properties": { "highway": "residential" }, "geometry": { "type": "LineString", "coordinates": [ [ -73.9542758, 40.8110093 ], [ -73.9542017, 40.8111097 ] ] } },
{ "type": "Feature", "properties": { "highway": "residential" }, "geometry": { "type": "LineString", "coordinates": [ [ -73.9542758, 40.8110093 ], [ -73.9543303, 40.8109338 ] ] } },
{ "type": "Feature", "properties": { "highway": "residential" }, "geometry": { "type": "LineString", "coordinates": [ [ -73.9603251, 40.8039853 ], [ -73.960426, 40.804028 ] ] } },
{ "type": "Feature", "properties": { "highway": "tertiary" }, "geometry": { "type": "LineString", "coordinates": [ [ -73.9603251, 40.8039853 ], [ -73.9604418, 40.803658 ] ] } },
{ "type": "Feature", "properties": { "highway": "tertiary" }, "geometry": { "type": "LineString", "coordinates": [ [ -73.9603251, 40.8039853 ], [ -73.9602153, 40.8043144 ], [ -73.960077, 40.8047082 ] ] } },
{ "type": "Feature", "properties": { "highway": "residential" }, "geometry": { "type": "LineString", "coordinates": [ [ -73.9671331, 40.8068579 ], [ -73.9671074, 40.8069294 ] ] } },
{ "type": "Feature", "properties": { "highway": "residential" }, "geometry": { "type": "LineString", "coordinates": [ [ -73.9671331, 40.8068579 ], [ -73.967159, 40.8067806 ] ] } },
{ "type": "Feature", "properties": { "highway": "residential" }, "geometry": { "type": "LineString", "coordinates": [ [ -73.9671331, 40.8068579 ], [ -73.9673729, 40.8069441 ] ] } },
{ "type": "Feature", "properties": { "highway": "residential" }, "geometry": { "type": "LineString", "coordinates": [ [ -73.9671331, 40.8068579 ], [ -73.9670769, 40.8068353 ] ] } },
{ "type": "Feature", "properties": { "highway": "residential" }, "geometry": { "type": "LineString", "coordinates": [ [ -73.9540205, 40.801325 ], [ -73.9541264, 40.8013698 ] ] } },
{ "type": "Feature", "properties": { "highway": "residential" }, "geometry": { "type": "LineString", "coordinates": [ [ -73.9540205, 40.801325 ], [ -73.9538486, 40.8012531 ] ] } },
{ "type": "Feature", "properties": { "highway": "primary" }, "geometry": { "type": "LineString", "coordinates": [ [ -73.9540205, 40.801325 ], [ -73.9540573, 40.8012746 ] ] } },
{ "type": "Feature", "properties": { "highway": "primary" }, "geometry": { "type": "LineString", "coordinates": [ [ -73.9540205, 40.801325 ], [ -73.9539751, 40.8013867 ] ] } },
{ "type": "Feature", "properties": { "highway": "residential" }, "geometry": { "type": "LineString", "coordinates": [ [ -73.9567756, 40.8024899 ], [ -73.956902, 40.8025417 ] ] } },
{ "type": "Feature", "properties": { "highway": "residential" }, "geometry": { "type": "LineString", "coordinates": [ [ -73.9567756, 40.8024899 ], [ -73.9566556, 40.8024392 ] ] } },
{ "type": "Feature", "properties": { "highway": "secondary" }, "geometry": { "type": "LineString", "coordinates": [ [ -73.9567756, 40.8024899 ], [ -73.9567331, 40.8025483 ] ] } },
{ "type": "Feature", "properties": { "highway": "secondary" }, "geometry": { "type": "LineString", "coordinates": [ [ -73.9567756, 40.8024899 ], [ -73.9568148, 40.8024361 ] ] } },
{ "type": "Feature", "properties": { "highway": "residential" }, "geometry": { "type": "LineString", "coordinates": [ [ -73.9582337, 40.8031025 ], [ -73.9581352, 40.8030607 ] ] } },
{ "type": "Feature", "properties": { "highway": "residential" }, "geometry": { "type": "LineString", "coordinates": [ [ -73.9582337, 40.8031025 ], [ -73.9582715, 40.8030483 ] ] } },
{ "type": "Feature", "properties": { "highway": "residential" }, "geometry": { "type": "LineString", "coordinates": [ [ -73.9582337, 40.8031025 ], [ -73.9582366, 40.8031826 ] ] } },
{ "type": "Feature", "properties": { "highway": "residential" }, "geometry": { "type": "LineString", "coordinates": [ [ -73.9582337, 40.8031025 ], [ -73.9581889, 40.8031641 ] ] } },
{ "type": "Feature", "properties": { "highway": "residential" }, "geometry": { "type": "LineString", "coordinates": [ [ -73.9609777, 40.7993297 ], [ -73.9610829, 40.799374 ] ] } },
{ "type": "Feature", "properties": { "highway": "residential" }, "geometry": { "type": "LineString", "coordinates": [ [ -73.9609777, 40.7993297 ], [ -73.9608874, 40.7992916 ] ] } },
{ "type": "Feature", "properties": { "highway": "residential" }, "geometry": { "type": "LineString", "coordinates": [ [ -73.9609777, 40.7993297 ], [ -73.9609356, 40.7993878 ] ] } },
{ "type": "Feature", "properties": { "highway": "residential" }, "geometry": { "type": "LineString", "coordinates": [ [ -73.9609777, 40.7993297 ], [ -73.9610129, 40.7992819 ] ] } },
{ "type": "Feature", "properties": { "highway": "residential" }, "geometry": { "type": "LineString", "coordinates": [ [ -73.9623828, 40.7999222 ], [ -73.9625058, 40.7999741 ] ] } },
{ "type": "Feature", "properties": { "highway": "residential" }, "geometry": { "type": "LineString", "coordinates": [ [ -73.9623828, 40.7999222 ], [ -73.9622479, 40.7998654 ] ] } },
{ "type": "Feature", "properties": { "highway": "primary" }, "geometry": { "type": "LineString", "coordinates": [ [ -73.9623828, 40.7999222 ], [ -73.9624226, 40.7998673 ] ] } },
{ "type": "Feature", "properties": { "highway": "primary" }, "geometry": { "type": "LineString", "coordinates": [ [ -73.9623828, 40.7999222 ], [ -73.9623361, 40.7999864 ] ] } },
{ "type": "Feature", "properties": { "highway": "residential" }, "geometry": { "type": "LineString", "coordinates": [ [ -73.9651949, 40.8011081 ], [ -73.9653521, 40.8011744 ] ] } },
{ "type": "Feature", "properties": { "highway": "residential" }, "geometry": { "type": "LineString", "coordinates": [ [ -73.9651949, 40.8011081 ], [ -73.9650918, 40.8010646 ] ] } },
{ "type": "Feature", "properties": { "highway": "primary" }, "geometry": { "type": "LineString", "coordinates": [ [ -73.9651949, 40.8011081 ], [ -73.9651499, 40.80117 ] ] } },
{ "type": "Feature", "properties": { "highway": "primary" }, "geometry": { "type": "LineString", "coordinates": [ [ -73.9651949, 40.8011081 ], [ -73.9652365, 40.8010529 ] ] } },
{ "type": "Feature", "properties": { "highway": "residential" }, "geometry": { "type": "LineString", "coordinates": [ [ -73.9527966, 40.8058775 ], [ -73.9529469, 40.8059388 ] ] } },
{ "type": "Feature", "properties": { "highway": "secondary" }, "geometry": { "type": "LineString", "coordinates": [ [ -73.9527966, 40.8058775 ], [ -73.9528019, 40.8059492 ] ] } },
{ "type": "Feature", "properties": { "highway": "secondary" }, "geometry": { "type": "LineString", "coordinates": [ [ -73.9529047, 40.8075507 ], [ -73.9528982, 40.8074369 ] ] } },
{ "type": "Feature", "properties": { "highway": "secondary" }, "geometry": { "type": "LineString", "coordinates": [ [ -73.9529047, 40.8075507 ], [ -73.95291, 40.807624 ] ] } },
{ "type": "Feature", "properties": { "highway": "residential" }, "geometry": { "type": "LineString", "coordinates": [ [ -73.9529047, 40.8075507 ], [ -73.9529737, 40.8075807 ], [ -73.9530399, 40.8076082 ] ] } },
{ "type": "Feature", "properties": { "highway": "residential" }, "geometry": { "type": "LineString", "coordinates": [ [ -73.9529558, 40.8083967 ], [ -73.9531, 40.8084557 ] ] } },
{ "type": "Feature", "properties": { "highway": "residential" }, "geometry": { "type": "LineString", "coordinates": [ [ -73.9529558, 40.8083967 ], [ -73.9528252, 40.8083446 ] ] } },
{ "type": "Feature", "properties": { "highway": "secondary" }, "geometry": { "type": "LineString", "coordinates": [ [ -73.9529558, 40.8083967 ], [ -73.952951, 40.8083206 ] ] } },
{ "type": "Feature", "properties": { "highway": "secondary" }, "geometry": { "type": "LineString", "coordinates": [ [ -73.9529558, 40.8083967 ], [ -73.9529582, 40.8084816 ] ] } },
{ "type": "Feature", "properties": { "highway": "secondary" }, "geometry": { "type": "LineString", "coordinates": [ [ -73.953005, 40.8092377 ], [ -73.9530101, 40.8093284 ] ] } },
{ "type": "Feature", "properties": { "highway": "secondary" }, "geometry": { "type": "LineString", "coordinates": [ [ -73.953005, 40.8092377 ], [ -73.9530007, 40.8091631 ] ] } },
{ "type": "Feature", "properties": { "highway": "residential" }, "geometry": { "type": "LineString", "coordinates": [ [ -73.953005, 40.8092377 ], [ -73.9531485, 40.8092989 ] ] } },
{ "type": "Feature", "properties": { "highway": "residential" }, "geometry": { "type": "LineString", "coordinates": [ [ -73.953005, 40.8092377 ], [ -73.9528578, 40.809176 ] ] } },
{ "type": "Feature", "properties": { "highway": "residential" }, "geometry": { "type": "LineString", "coordinates": [ [ -73.9531089, 40.8101047 ], [ -73.953225, 40.8101545 ] ] } },
{ "type": "Feature", "properties": { "highway": "residential" }, "geometry": { "type": "LineString", "coordinates": [ [ -73.9531089, 40.8101047 ], [ -73.9530244, 40.8100675 ] ] } },
{ "type": "Feature", "properties": { "highway": "secondary" }, "geometry": { "type": "LineString", "coordinates": [ [ -73.9531089, 40.8101047 ], [ -73.9530616, 40.8101545 ] ] } },
{ "type": "Feature", "properties": { "highway": "residential" }, "geometry": { "type": "LineString", "coordinates": [ [ -73.9531089, 40.8101047 ], [ -73.9531803, 40.8100324 ], [ -73.9531936, 40.8100161 ], [ -73.9532055, 40.8099996 ] ] } },
{ "type": "Feature", "properties": { "highway": "service" }, "geometry": { "type": "LineString", "coordinates": [ [ -73.955363, 40.7994668 ], [ -73.9554431, 40.7993845 ] ] } },
{ "type": "Feature", "properties": { "highway": "secondary" }, "geometry": { "type": "LineString", "coordinates": [ [ -73.955363, 40.7994668 ], [ -73.9554789, 40.7995158 ] ] } },
{ "type": "Feature", "properties": { "highway": "secondary" }, "geometry": { "type": "LineString", "coordinates": [ [ -73.955363, 40.7994668 ], [ -73.9552205, 40.7994068 ] ] } },
{ "type": "Feature", "properties": { "highway": "primary" }, "geometry": { "type": "LineString", "coordinates": [ [ -73.955363, 40.7994668 ], [ -73.9553022, 40.7995518 ] ] } },
{ "type": "Feature", "properties": { "highway": "secondary" }, "geometry": { "type": "LineString", "coordinates": [ [ -73.9590861, 40.7993567 ], [ -73.9590467, 40.7994105 ] ] } },
{ "type": "Feature", "properties": { "highway": "residential" }, "geometry": { "type": "LineString", "coordinates": [ [ -73.9590861, 40.7993567 ], [ -73.959208, 40.7994078 ] ] } },
{ "type": "Feature", "properties": { "highway": "secondary" }, "geometry": { "type": "LineString", "coordinates": [ [ -73.9590861, 40.7993567 ], [ -73.9591262, 40.7993018 ] ] } },
{ "type": "Feature", "properties": { "highway": "residential" }, "geometry": { "type": "LineString", "coordinates": [ [ -73.9586275, 40.7999836 ], [ -73.9587597, 40.8000395 ] ] } },
{ "type": "Feature", "properties": { "highway": "secondary" }, "geometry": { "type": "LineString", "coordinates": [ [ -73.9586275, 40.7999836 ], [ -73.9585847, 40.8000366 ] ] } },
{ "type": "Feature", "properties": { "highway": "secondary" }, "geometry": { "type": "LineString", "coordinates": [ [ -73.9586275, 40.7999836 ], [ -73.958662, 40.7999364 ] ] } },
{ "type": "Feature", "properties": { "highway": "secondary" }, "geometry": { "type": "LineString", "coordinates": [ [ -73.9583313, 40.8003679 ], [ -73.958382, 40.8003016 ] ] } },
{ "type": "Feature", "properties": { "highway": "secondary" }, "geometry": { "type": "LineString", "coordinates": [ [ -73.9583313, 40.8003679 ], [ -73.9582977, 40.800355 ], [ -73.958262, 40.8003455 ], [ -73.9582265, 40.8003401 ], [ -73.9581827, 40.8003376 ], [ -73.9581365, 40.8003406 ], [ -73.9581045, 40.8003438 ], [ -73.9580529, 40.8003561 ] ] } },
{ "type": "Feature", "properties": { "highway": "secondary" }, "geometry": { "type": "LineString", "coordinates": [ [ -73.9583313, 40.8003679 ], [ -73.9583749, 40.8003896 ], [ -73.9584063, 40.8004106 ], [ -73.9584294, 40.8004307 ], [ -73.9584533, 40.8004581 ], [ -73.9584709, 40.800483 ], [ -73.9584819, 40.800506 ], [ -73.9584884, 40.8005284 ], [ -73.9584918, 40.8005536 ], [ -73.9584942, 40.800581 ], [ -73.9584921, 40.8006033 ] ] } },
{ "type": "Feature", "properties": { "highway": "primary" }, "geometry": { "type": "LineString", "coordinates": [ [ -73.9610669, 40.8017902 ], [ -73.9611016, 40.8016766 ] ] } },
{ "type": "Feature", "properties": { "highway": "secondary" }, "geometry": { "type": "LineString", "coordinates": [ [ -73.9610669, 40.8017902 ], [ -73.9609518, 40.8017363 ] ] } },
{ "type": "Feature", "properties": { "highway": "secondary" }, "geometry": { "type": "LineString", "coordinates": [ [ -73.9610669, 40.8017902 ], [ -73.9611712, 40.8018388 ] ] } },
{ "type": "Feature", "properties": { "highway": "tertiary" }, "geometry": { "type": "LineString", "coordinates": [ [ -73.9610669, 40.8017902 ], [ -73.961037, 40.8018965 ] ] } },
{ "type": "Feature", "properties": { "highway": "residential" }, "geometry": { "type": "LineString", "coordinates": [ [ -73.960077, 40.8047082 ], [ -73.9601736, 40.8047491 ] ] } },
{ "type": "Feature", "properties": { "highway": "tertiary" }, "geometry": { "type": "LineString", "coordinates": [ [ -73.960077, 40.8047082 ], [ -73.9598246, 40.8054325 ] ] } },
{ "type": "Feature", "properties": { "highway": "tertiary" }, "geometry": { "type": "LineString", "coordinates": [ [ -73.960077, 40.8047082 ], [ -73.9602153, 40.8043144 ], [ -73.9603251, 40.8039853 ] ] } },
{ "type": "Feature", "properties": { "highway": "residential" }, "geometry": { "type": "LineString", "coordinates": [ [ -73.9598246, 40.8054325 ], [ -73.9599293, 40.8054766 ] ] } },
{ "type": "Feature", "properties": { "highway": "tertiary" }, "geometry": { "type": "LineString", "coordinates": [ [ -73.9598246, 40.8054325 ], [ -73.960077, 40.8047082 ] ] } },
{ "type": "Feature", "properties": { "highway": "tertiary" }, "geometry": { "type": "LineString", "coordinates": [ [ -73.9598246, 40.8054325 ], [ -73.9597984, 40.8055128 ], [ -73.9597701, 40.8055613 ], [ -73.9597281, 40.8056186 ], [ -73.959648, 40.8057239 ], [ -73.9595285, 40.8058883 ], [ -73.9594185, 40.8060312 ] ] } },
{ "type": "Feature", "properties": { "highway": "residential" }, "geometry": { "type": "LineString", "coordinates": [ [ -73.9572467, 40.8093981 ], [ -73.9573426, 40.8094383 ] ] } },
{ "type": "Feature", "properties": { "highway": "tertiary" }, "geometry": { "type": "LineString", "coordinates": [ [ -73.9572467, 40.8093981 ], [ -73.9572178, 40.8094516 ] ] } },
{ "type": "Feature", "properties": { "highway": "tertiary" }, "geometry": { "type": "LineString", "coordinates": [ [ -73.9572467, 40.8093981 ], [ -73.9572755, 40.8093447 ] ] } },
{ "type": "Feature", "properties": { "highway": "secondary" }, "geometry": { "type": "LineString", "coordinates": [ [ -73.9580118, 40.8007934 ], [ -73.9579551, 40.8008736 ] ] } },
{ "type": "Feature", "properties": { "highway": "secondary" }, "geometry": { "type": "LineString", "coordinates": [ [ -73.9580118, 40.8007934 ], [ -73.9580358, 40.8008049 ], [ -73.958068, 40.8008147 ], [ -73.958103, 40.800823 ], [ -73.9581382, 40.8008267 ], [ -73.9581745, 40.8008267 ], [ -73.9582157, 40.8008247 ], [ -73.9582617, 40.8008156 ], [ -73.9582989, 40.8008063 ], [ -73.9583309, 40.8007954 ], [ -73.9583604, 40.8007804 ], [ -73.958402, 40.8007563 ] ] } },
{ "type": "Feature", "properties": { "highway": "secondary" }, "geometry": { "type": "LineString", "coordinates": [ [ -73.9580118, 40.8007934 ], [ -73.9579814, 40.8007771 ], [ -73.9579537, 40.8007612 ], [ -73.9579256, 40.8007396 ], [ -73.9579058, 40.8007193 ], [ -73.9578873, 40.8006934 ], [ -73.957873, 40.8006671 ], [ -73.9578625, 40.8006395 ], [ -73.9578552, 40.8006073 ], [ -73.9578551, 40.8005769 ], [ -73.9578582, 40.8005497 ], [ -73.957867, 40.8005207 ] ] } },
{ "type": "Feature", "properties": { "highway": "secondary" }, "geometry": { "type": "LineString", "coordinates": [ [ -73.9576916, 40.8012375 ], [ -73.9576489, 40.8012958 ] ] } },
{ "type": "Feature", "properties": { "highway": "secondary" }, "geometry": { "type": "LineString", "coordinates": [ [ -73.9576916, 40.8012375 ], [ -73.9577304, 40.8011847 ] ] } },
{ "type": "Feature", "properties": { "highway": "residential" }, "geometry": { "type": "LineString", "coordinates": [ [ -73.9576916, 40.8012375 ], [ -73.9578047, 40.8012853 ] ] } },
{ "type": "Feature", "properties": { "highway": "residential" }, "geometry": { "type": "LineString", "coordinates": [ [ -73.9576916, 40.8012375 ], [ -73.957585, 40.8011928 ] ] } },
{ "type": "Feature", "properties": { "highway": "secondary" }, "geometry": { "type": "LineString", "coordinates": [ [ -73.9572369, 40.8018566 ], [ -73.9572772, 40.8018017 ] ] } },
{ "type": "Feature", "properties": { "highway": "residential" }, "geometry": { "type": "LineString", "coordinates": [ [ -73.9572369, 40.8018566 ], [ -73.9571351, 40.8018138 ] ] } },
{ "type": "Feature", "properties": { "highway": "residential" }, "geometry": { "type": "LineString", "coordinates": [ [ -73.9572369, 40.8018566 ], [ -73.9573723, 40.801914 ] ] } },
{ "type": "Feature", "properties": { "highway": "secondary" }, "geometry": { "type": "LineString", "coordinates": [ [ -73.9572369, 40.8018566 ], [ -73.9571865, 40.8019259 ] ] } },
{ "type": "Feature", "properties": { "highway": "residential" }, "geometry": { "type": "LineString", "coordinates": [ [ -73.95632, 40.8031162 ], [ -73.9564497, 40.8031711 ] ] } },
{ "type": "Feature", "properties": { "highway": "secondary" }, "geometry": { "type": "LineString", "coordinates": [ [ -73.95632, 40.8031162 ], [ -73.956276, 40.8031768 ] ] } },
{ "type": "Feature", "properties": { "highway": "secondary" }, "geometry": { "type": "LineString", "coordinates": [ [ -73.95632, 40.8031162 ], [ -73.9563536, 40.8030701 ] ] } },
{ "type": "Feature", "properties": { "highway": "residential" }, "geometry": { "type": "LineString", "coordinates": [ [ -73.95632, 40.8031162 ], [ -73.9562134, 40.8030714 ] ] } },
{ "type": "Feature", "properties": { "highway": "secondary" }, "geometry": { "type": "LineString", "coordinates": [ [ -73.9558634, 40.8037455 ], [ -73.9558181, 40.8038073 ] ] } },
{ "type": "Feature", "properties": { "highway": "secondary" }, "geometry": { "type": "LineString", "coordinates": [ [ -73.9558634, 40.8037455 ], [ -73.9558956, 40.803701 ] ] } },
{ "type": "Feature", "properties": { "highway": "residential" }, "geometry": { "type": "LineString", "coordinates": [ [ -73.9558634, 40.8037455 ], [ -73.9559736, 40.8037922 ] ] } },
{ "type": "Feature", "properties": { "highway": "residential" }, "geometry": { "type": "LineString", "coordinates": [ [ -73.9558634, 40.8037455 ], [ -73.955745, 40.8036956 ] ] } },
{ "type": "Feature", "properties": { "highway": "tertiary" }, "geometry": { "type": "LineString", "coordinates": [ [ -73.9553696, 40.8044178 ], [ -73.9554693, 40.8044602 ] ] } },
{ "type": "Feature", "properties": { "highway": "secondary" }, "geometry": { "type": "LineString", "coordinates": [ [ -73.9553696, 40.8044178 ], [ -73.9552936, 40.8045215 ] ] } },
{ "type": "Feature", "properties": { "highway": "secondary" }, "geometry": { "type": "LineString", "coordinates": [ [ -73.9553696, 40.8044178 ], [ -73.9554376, 40.8043253 ] ] } },
{ "type": "Feature", "properties": { "highway": "tertiary" }, "geometry": { "type": "LineString", "coordinates": [ [ -73.9553696, 40.8044178 ], [ -73.9552643, 40.8043735 ] ] } },
{ "type": "Feature", "properties": { "highway": "residential" }, "geometry": { "type": "LineString", "coordinates": [ [ -73.9548742, 40.8050938 ], [ -73.9549742, 40.8051363 ] ] } },
{ "type": "Feature", "properties": { "highway": "residential" }, "geometry": { "type": "LineString", "coordinates": [ [ -73.9548742, 40.8050938 ], [ -73.9547536, 40.8050432 ] ] } },
{ "type": "Feature", "properties": { "highway": "secondary" }, "geometry": { "type": "LineString", "coordinates": [ [ -73.9548742, 40.8050938 ], [ -73.9548255, 40.8051607 ] ] } },
{ "type": "Feature", "properties": { "highway": "secondary" }, "geometry": { "type": "LineString", "coordinates": [ [ -73.9548742, 40.8050938 ], [ -73.9549113, 40.8050432 ] ] } },
{ "type": "Feature", "properties": { "highway": "residential" }, "geometry": { "type": "LineString", "coordinates": [ [ -73.9539576, 40.8063523 ], [ -73.9540697, 40.8063996 ] ] } },
{ "type": "Feature", "properties": { "highway": "residential" }, "geometry": { "type": "LineString", "coordinates": [ [ -73.9539576, 40.8063523 ], [ -73.9538527, 40.8063081 ] ] } },
{ "type": "Feature", "properties": { "highway": "secondary" }, "geometry": { "type": "LineString", "coordinates": [ [ -73.9539576, 40.8063523 ], [ -73.9539156, 40.80641 ] ] } },
{ "type": "Feature", "properties": { "highway": "secondary" }, "geometry": { "type": "LineString", "coordinates": [ [ -73.9539576, 40.8063523 ], [ -73.9539976, 40.8062975 ] ] } },
{ "type": "Feature", "properties": { "highway": "residential" }, "geometry": { "type": "LineString", "coordinates": [ [ -73.9530399, 40.8076082 ], [ -73.9531565, 40.8076563 ] ] } },
{ "type": "Feature", "properties": { "highway": "secondary" }, "geometry": { "type": "LineString", "coordinates": [ [ -73.9530399, 40.8076082 ], [ -73.9530029, 40.8076615 ] ] } },
{ "type": "Feature", "properties": { "highway": "secondary" }, "geometry": { "type": "LineString", "coordinates": [ [ -73.9530399, 40.8076082 ], [ -73.9531044, 40.8075177 ] ] } },
{ "type": "Feature", "properties": { "highway": "residential" }, "geometry": { "type": "LineString", "coordinates": [ [ -73.9530399, 40.8076082 ], [ -73.9529737, 40.8075807 ], [ -73.9529047, 40.8075507 ] ] } },
{ "type": "Feature", "properties": { "highway": "tertiary" }, "geometry": { "type": "LineString", "coordinates": [ [ -73.9531404, 40.8126972 ], [ -73.9531383, 40.8127767 ] ] } },
{ "type": "Feature", "properties": { "highway": "residential" }, "geometry": { "type": "LineString", "coordinates": [ [ -73.9531404, 40.8126972 ], [ -73.9532419, 40.81274 ] ] } },
{ "type": "Feature", "properties": { "highway": "residential" }, "geometry": { "type": "LineString", "coordinates": [ [ -73.9531404, 40.8126972 ], [ -73.9530397, 40.8126555 ] ] } },
{ "type": "Feature", "properties": { "highway": "tertiary" }, "geometry": { "type": "LineString", "coordinates": [ [ -73.9531404, 40.8126972 ], [ -73.9531435, 40.8126669 ], [ -73.9531515, 40.8126346 ] ] } },
{ "type": "Feature", "properties": { "highway": "residential" }, "geometry": { "type": "LineString", "coordinates": [ [ -73.9551936, 40.8135587 ], [ -73.9550133, 40.8134833 ] ] } },
{ "type": "Feature", "properties": { "highway": "residential" }, "geometry": { "type": "LineString", "coordinates": [ [ -73.9551936, 40.8135587 ], [ -73.9556149, 40.8140461 ] ] } },
{ "type": "Feature", "properties": { "highway": "residential" }, "geometry": { "type": "LineString", "coordinates": [ [ -73.9551936, 40.8135587 ], [ -73.9544838, 40.8127376 ], [ -73.9542893, 40.8125126 ] ] } },
{ "type": "Feature", "properties": { "highway": "residential" }, "geometry": { "type": "LineString", "coordinates": [ [ -73.9610565, 40.8068316 ], [ -73.9609214, 40.8067743 ] ] } },
{ "type": "Feature", "properties": { "highway": "secondary" }, "geometry": { "type": "LineString", "coordinates": [ [ -73.9610565, 40.8068316 ], [ -73.9609926, 40.8069192 ] ] } },
{ "type": "Feature", "properties": { "highway": "secondary" }, "geometry": { "type": "LineString", "coordinates": [ [ -73.9610565, 40.8068316 ], [ -73.9611217, 40.8067422 ] ] } },
{ "type": "Feature", "properties": { "highway": "pedestrian" }, "geometry": { "type": "LineString", "coordinates": [ [ -73.9610565, 40.8068316 ], [ -73.9611518, 40.8068717 ], [ -73.9611709, 40.8068797 ] ] } },
{ "type": "Feature", "properties": { "highway": "tertiary" }, "geometry": { "type": "LineString", "coordinates": [ [ -73.9568268, 40.8050312 ], [ -73.9567312, 40.8049914 ] ] } },
{ "type": "Feature", "properties": { "highway": "residential" }, "geometry": { "type": "LineString", "coordinates": [ [ -73.9568268, 40.8050312 ], [ -73.9567517, 40.8051353 ] ] } },
{ "type": "Feature", "properties": { "highway": "tertiary" }, "geometry": { "type": "LineString", "coordinates": [ [ -73.9568268, 40.8050312 ], [ -73.9569238, 40.8050726 ] ] } },
{ "type": "Feature", "properties": { "highway": "residential" }, "geometry": { "type": "LineString", "coordinates": [ [ -73.9568268, 40.8050312 ], [ -73.9568935, 40.8049422 ] ] } },
{ "type": "Feature", "properties": { "highway": "residential" }, "geometry": { "type": "LineString", "coordinates": [ [ -73.958191, 40.8056136 ], [ -73.9581306, 40.8057177 ] ] } },
{ "type": "Feature", "properties": { "highway": "tertiary" }, "geometry": { "type": "LineString", "coordinates": [ [ -73.958191, 40.8056136 ], [ -73.9580738, 40.8055641 ] ] } },
{ "type": "Feature", "properties": { "highway": "residential" }, "geometry": { "type": "LineString", "coordinates": [ [ -73.958191, 40.8056136 ], [ -73.9582431, 40.805509 ] ] } },
{ "type": "Feature", "properties": { "highway": "residential" }, "geometry": { "type": "LineString", "coordinates": [ [ -73.9544809, 40.8006953 ], [ -73.9545948, 40.8007428 ] ] } },
{ "type": "Feature", "properties": { "highway": "residential" }, "geometry": { "type": "LineString", "coordinates": [ [ -73.9544809, 40.8006953 ], [ -73.9543146, 40.8006259 ] ] } },
{ "type": "Feature", "properties": { "highway": "primary" }, "geometry": { "type": "LineString", "coordinates": [ [ -73.9544809, 40.8006953 ], [ -73.9545144, 40.8006488 ] ] } },
{ "type": "Feature", "properties": { "highway": "primary" }, "geometry": { "type": "LineString", "coordinates": [ [ -73.9544809, 40.8006953 ], [ -73.9544398, 40.8007515 ] ] } },
{ "type": "Feature", "properties": { "highway": "residential" }, "geometry": { "type": "LineString", "coordinates": [ [ -73.9586898, 40.802473 ], [ -73.9586451, 40.8025345 ] ] } },
{ "type": "Feature", "properties": { "highway": "residential" }, "geometry": { "type": "LineString", "coordinates": [ [ -73.9586898, 40.802473 ], [ -73.9587263, 40.8024228 ] ] } },
{ "type": "Feature", "properties": { "highway": "residential" }, "geometry": { "type": "LineString", "coordinates": [ [ -73.9586898, 40.802473 ], [ -73.9586017, 40.8024356 ] ] } },
{ "type": "Feature", "properties": { "highway": "secondary" }, "geometry": { "type": "LineString", "coordinates": [ [ -73.9629314, 40.8042605 ], [ -73.9628856, 40.8043223 ] ] } },
{ "type": "Feature", "properties": { "highway": "secondary" }, "geometry": { "type": "LineString", "coordinates": [ [ -73.9629314, 40.8042605 ], [ -73.9629659, 40.8042133 ] ] } },
{ "type": "Feature", "properties": { "highway": "residential" }, "geometry": { "type": "LineString", "coordinates": [ [ -73.9629314, 40.8042605 ], [ -73.9630586, 40.8043137 ] ] } },
{ "type": "Feature", "properties": { "highway": "residential" }, "geometry": { "type": "LineString", "coordinates": [ [ -73.967373, 40.806127 ], [ -73.9673239, 40.8061063 ] ] } },
{ "type": "Feature", "properties": { "highway": "residential" }, "geometry": { "type": "LineString", "coordinates": [ [ -73.967373, 40.806127 ], [ -73.9673604, 40.806162 ] ] } },
{ "type": "Feature", "properties": { "highway": "residential" }, "geometry": { "type": "LineString", "coordinates": [ [ -73.967373, 40.806127 ], [ -73.9674131, 40.8060349 ], [ -73.9674484, 40.8059537 ], [ -73.9675624, 40.8057091 ], [ -73.9676812, 40.8055229 ] ] } },
{ "type": "Feature", "properties": { "highway": "residential" }, "geometry": { "type": "LineString", "coordinates": [ [ -73.9662021, 40.7997657 ], [ -73.9663343, 40.7998211 ] ] } },
{ "type": "Feature", "properties": { "highway": "residential" }, "geometry": { "type": "LineString", "coordinates": [ [ -73.9662021, 40.7997657 ], [ -73.9660828, 40.7997152 ] ] } },
{ "type": "Feature", "properties": { "highway": "primary" }, "geometry": { "type": "LineString", "coordinates": [ [ -73.9662021, 40.7997657 ], [ -73.9662431, 40.7997073 ] ] } },
{ "type": "Feature", "properties": { "highway": "primary" }, "geometry": { "type": "LineString", "coordinates": [ [ -73.9662021, 40.7997657 ], [ -73.9661562, 40.799825 ] ] } },
{ "type": "Feature", "properties": { "highway": "residential" }, "geometry": { "type": "LineString", "coordinates": [ [ -73.9535786, 40.8094823 ], [ -73.9535337, 40.8095445 ] ] } },
{ "type": "Feature", "properties": { "highway": "residential" }, "geometry": { "type": "LineString", "coordinates": [ [ -73.9535786, 40.8094823 ], [ -73.9536136, 40.8094334 ] ] } },
{ "type": "Feature", "properties": { "highway": "residential" }, "geometry": { "type": "LineString", "coordinates": [ [ -73.9535786, 40.8094823 ], [ -73.9536645, 40.8095181 ] ] } },
{ "type": "Feature", "properties": { "highway": "residential" }, "geometry": { "type": "LineString", "coordinates": [ [ -73.9535786, 40.8094823 ], [ -73.9534861, 40.8094428 ] ] } },
{ "type": "Feature", "properties": { "highway": "residential" }, "geometry": { "type": "LineString", "coordinates": [ [ -73.9549689, 40.8100609 ], [ -73.9550077, 40.8100051 ] ] } },
{ "type": "Feature", "properties": { "highway": "residential" }, "geometry": { "type": "LineString", "coordinates": [ [ -73.9549689, 40.8100609 ], [ -73.9549166, 40.8101323 ] ] } },
{ "type": "Feature", "properties": { "highway": "residential" }, "geometry": { "type": "LineString", "coordinates": [ [ -73.9549689, 40.8100609 ], [ -73.9548382, 40.8100064 ] ] } },
{ "type": "Feature", "properties": { "highway": "residential" }, "geometry": { "type": "LineString", "coordinates": [ [ -73.9549689, 40.8100609 ], [ -73.9551034, 40.8101168 ] ] } },
{ "type": "Feature", "properties": { "highway": "secondary" }, "geometry": { "type": "LineString", "coordinates": [ [ -73.957805, 40.8112717 ], [ -73.9577662, 40.811325 ] ] } },
{ "type": "Feature", "properties": { "highway": "secondary" }, "geometry": { "type": "LineString", "coordinates": [ [ -73.957805, 40.8112717 ], [ -73.9578513, 40.811208 ] ] } },
{ "type": "Feature", "properties": { "highway": "residential" }, "geometry": { "type": "LineString", "coordinates": [ [ -73.957805, 40.8112717 ], [ -73.9579371, 40.8113262 ] ] } },
{ "type": "Feature", "properties": { "highway": "residential" }, "geometry": { "type": "LineString", "coordinates": [ [ -73.957805, 40.8112717 ], [ -73.957683, 40.8112218 ] ] } },
{ "type": "Feature", "properties": { "highway": "residential" }, "geometry": { "type": "LineString", "coordinates": [ [ -73.953623, 40.8103252 ], [ -73.953225, 40.8101545 ] ] } },
{ "type": "Feature", "properties": { "highway": "residential" }, "geometry": { "type": "LineString", "coordinates": [ [ -73.953623, 40.8103252 ], [ -73.9538231, 40.8104089 ], [ -73.9540503, 40.8105016 ] ] } },
{ "type": "Feature", "properties": { "highway": "residential" }, "geometry": { "type": "LineString", "coordinates": [ [ -73.953623, 40.8103252 ], [ -73.9541704, 40.8109012 ], [ -73.9541829, 40.8109201 ] ] } },
{ "type": "Feature", "properties": { "highway": "residential" }, "geometry": { "type": "LineString", "coordinates": [ [ -73.958204, 40.8038773 ], [ -73.9582014, 40.8038181 ] ] } },
{ "type": "Feature", "properties": { "highway": "residential" }, "geometry": { "type": "LineString", "coordinates": [ [ -73.958204, 40.8038773 ], [ -73.9582079, 40.8039619 ] ] } },
{ "type": "Feature", "properties": { "highway": "residential" }, "geometry": { "type": "LineString", "coordinates": [ [ -73.958204, 40.8038773 ], [ -73.9581488, 40.8038712 ], [ -73.9580948, 40.8038599 ] ] } },
{ "type": "Feature", "properties": { "highway": "residential" }, "geometry": { "type": "LineString", "coordinates": [ [ -73.9577147, 40.8062968 ], [ -73.9576729, 40.8063541 ] ] } },
{ "type": "Feature", "properties": { "highway": "residential" }, "geometry": { "type": "LineString", "coordinates": [ [ -73.9577147, 40.8062968 ], [ -73.9581306, 40.8057177 ] ] } },
{ "type": "Feature", "properties": { "highway": "residential" }, "geometry": { "type": "LineString", "coordinates": [ [ -73.9577147, 40.8062968 ], [ -73.9575939, 40.8062475 ] ] } },
{ "type": "Feature", "properties": { "highway": "residential" }, "geometry": { "type": "LineString", "coordinates": [ [ -73.9572588, 40.8069224 ], [ -73.9572125, 40.8069866 ] ] } },
{ "type": "Feature", "properties": { "highway": "residential" }, "geometry": { "type": "LineString", "coordinates": [ [ -73.9572588, 40.8069224 ], [ -73.9572916, 40.8068774 ] ] } },
{ "type": "Feature", "properties": { "highway": "residential" }, "geometry": { "type": "LineString", "coordinates": [ [ -73.9572588, 40.8069224 ], [ -73.9571424, 40.8068726 ] ] } },
{ "type": "Feature", "properties": { "highway": "residential" }, "geometry": { "type": "LineString", "coordinates": [ [ -73.9568013, 40.8075511 ], [ -73.9563825, 40.8081262 ] ] } },
{ "type": "Feature", "properties": { "highway": "residential" }, "geometry": { "type": "LineString", "coordinates": [ [ -73.9568013, 40.8075511 ], [ -73.9572125, 40.8069866 ] ] } },
{ "type": "Feature", "properties": { "highway": "residential" }, "geometry": { "type": "LineString", "coordinates": [ [ -73.9568013, 40.8075511 ], [ -73.9566809, 40.8075002 ] ] } },
{ "type": "Feature", "properties": { "highway": "residential" }, "geometry": { "type": "LineString", "coordinates": [ [ -73.9558862, 40.8088028 ], [ -73.9554225, 40.8094384 ] ] } },
{ "type": "Feature", "properties": { "highway": "residential" }, "geometry": { "type": "LineString", "coordinates": [ [ -73.9558862, 40.8088028 ], [ -73.956297, 40.80824 ] ] } },
{ "type": "Feature", "properties": { "highway": "residential" }, "geometry": { "type": "LineString", "coordinates": [ [ -73.9558862, 40.8088028 ], [ -73.9557657, 40.8087551 ] ] } },
{ "type": "Feature", "properties": { "highway": "residential" }, "geometry": { "type": "LineString", "coordinates": [ [ -73.9554225, 40.8094384 ], [ -73.9558862, 40.8088028 ] ] } },
{ "type": "Feature", "properties": { "highway": "residential" }, "geometry": { "type": "LineString", "coordinates": [ [ -73.9554225, 40.8094384 ], [ -73.9553075, 40.8093895 ] ] } },
{ "type": "Feature", "properties": { "highway": "residential" }, "geometry": { "type": "LineString", "coordinates": [ [ -73.9554225, 40.8094384 ], [ -73.9550319, 40.8099752 ], [ -73.9550077, 40.8100051 ] ] } },
{ "type": "Feature", "properties": { "highway": "residential" }, "geometry": { "type": "LineString", "coordinates": [ [ -73.9545043, 40.8106928 ], [ -73.9544593, 40.8107556 ] ] } },
{ "type": "Feature", "properties": { "highway": "residential" }, "geometry": { "type": "LineString", "coordinates": [ [ -73.9545043, 40.8106928 ], [ -73.9545424, 40.8106423 ] ] } },
{ "type": "Feature", "properties": { "highway": "residential" }, "geometry": { "type": "LineString", "coordinates": [ [ -73.9545043, 40.8106928 ], [ -73.9543885, 40.8106439 ] ] } },
{ "type": "Feature", "properties": { "highway": "tertiary" }, "geometry": { "type": "LineString", "coordinates": [ [ -73.9540099, 40.8113669 ], [ -73.9539311, 40.8114771 ] ] } },
{ "type": "Feature", "properties": { "highway": "residential" }, "geometry": { "type": "LineString", "coordinates": [ [ -73.9540099, 40.8113669 ], [ -73.9540768, 40.8112769 ] ] } },
{ "type": "Feature", "properties": { "highway": "primary" }, "geometry": { "type": "LineString", "coordinates": [ [ -73.9540099, 40.8113669 ], [ -73.9538913, 40.8113166 ] ] } },
{ "type": "Feature", "properties": { "highway": "primary" }, "geometry": { "type": "LineString", "coordinates": [ [ -73.9540099, 40.8113669 ], [ -73.9541358, 40.8114203 ] ] } },
{ "type": "Feature", "properties": { "highway": "tertiary" }, "geometry": { "type": "LineString", "coordinates": [ [ -73.953546, 40.8120517 ], [ -73.9535776, 40.8119983 ] ] } },
{ "type": "Feature", "properties": { "highway": "tertiary" }, "geometry": { "type": "LineString", "coordinates": [ [ -73.953546, 40.8120517 ], [ -73.9535085, 40.8121148 ] ] } },
{ "type": "Feature", "properties": { "highway": "residential" }, "geometry": { "type": "LineString", "coordinates": [ [ -73.953546, 40.8120517 ], [ -73.9536517, 40.8120968 ] ] } },
{ "type": "Feature", "properties": { "highway": "residential" }, "geometry": { "type": "LineString", "coordinates": [ [ -73.953546, 40.8120517 ], [ -73.9534459, 40.8120095 ] ] } },
{ "type": "Feature", "properties": { "highway": "secondary_link" }, "geometry": { "type": "LineString", "coordinates": [ [ -73.9674745, 40.8069791 ], [ -73.9673729, 40.8069441 ] ] } },
{ "type": "Feature", "properties": { "highway": "secondary" }, "geometry": { "type": "LineString", "coordinates": [ [ -73.9674745, 40.8069791 ], [ -73.9675208, 40.8068995 ] ] } },
{ "type": "Feature", "properties": { "highway": "secondary" }, "geometry": { "type": "LineString", "coordinates": [ [ -73.9674745, 40.8069791 ], [ -73.9674186, 40.8070651 ] ] } },
{ "type": "Feature", "properties": { "highway": "residential" }, "geometry": { "type": "LineString", "coordinates": [ [ -73.961865, 40.8140511 ], [ -73.9619916, 40.8138477 ], [ -73.9620111, 40.8138233 ], [ -73.9620284, 40.8138046 ], [ -73.9620472, 40.8137878 ], [ -73.9621706, 40.8136829 ] ] } },
{ "type": "Feature", "properties": { "highway": "secondary_link" }, "geometry": { "type": "LineString", "coordinates": [ [ -73.961865, 40.8140511 ], [ -73.9620034, 40.8139089 ], [ -73.9620642, 40.8138923 ], [ -73.9620932, 40.8138997 ], [ -73.9621152, 40.8139094 ] ] } },
{ "type": "Feature", "properties": { "highway": "secondary" }, "geometry": { "type": "LineString", "coordinates": [ [ -73.9631713, 40.8124168 ], [ -73.963002, 40.8126411 ] ] } },
{ "type": "Feature", "properties": { "highway": "secondary" }, "geometry": { "type": "LineString", "coordinates": [ [ -73.9631713, 40.8124168 ], [ -73.9638821, 40.8114286 ] ] } },
{ "type": "Feature", "properties": { "highway": "secondary_link" }, "geometry": { "type": "LineString", "coordinates": [ [ -73.9631713, 40.8124168 ], [ -73.9632522, 40.8123657 ], [ -73.9633173, 40.812329 ], [ -73.9633865, 40.8122887 ], [ -73.9634655, 40.8122498 ] ] } },
{ "type": "Feature", "properties": { "highway": "path" }, "geometry": { "type": "LineString", "coordinates": [ [ -73.9638901, 40.8127397 ], [ -73.9640081, 40.8127445 ] ] } },
{ "type": "Feature", "properties": { "highway": "secondary" }, "geometry": { "type": "LineString", "coordinates": [ [ -73.9638901, 40.8127397 ], [ -73.9638909, 40.8127056 ], [ -73.9639023, 40.8124025 ] ] } },
{ "type": "Feature", "properties": { "highway": "secondary" }, "geometry": { "type": "LineString", "coordinates": [ [ -73.9638901, 40.8127397 ], [ -73.963879, 40.8128122 ], [ -73.9638764, 40.8128391 ], [ -73.9638667, 40.8128903 ], [ -73.9638463, 40.8129853 ], [ -73.963821, 40.8130747 ], [ -73.9637985, 40.8131415 ], [ -73.9637557, 40.8132415 ] ] } },
{ "type": "Feature", "properties": { "highway": "secondary_link" }, "geometry": { "type": "LineString", "coordinates": [ [ -73.9639023, 40.8124025 ], [ -73.963893, 40.8123667 ], [ -73.9638799, 40.8123377 ], [ -73.9638633, 40.8123145 ], [ -73.9638369, 40.8122918 ], [ -73.9637978, 40.8122726 ] ] } },
{ "type": "Feature", "properties": { "highway": "secondary" }, "geometry": { "type": "LineString", "coordinates": [ [ -73.9639023, 40.8124025 ], [ -73.9638971, 40.8122916 ], [ -73.9638957, 40.8120348 ], [ -73.9638928, 40.8118761 ], [ -73.9639032, 40.8117451 ], [ -73.9639303, 40.8116267 ], [ -73.9639483, 40.811573 ], [ -73.9639716, 40.811523 ], [ -73.9639908, 40.8114699 ] ] } },
{ "type": "Feature", "properties": { "highway": "secondary" }, "geometry": { "type": "LineString", "coordinates": [ [ -73.9639023, 40.8124025 ], [ -73.9638909, 40.8127056 ], [ -73.9638901, 40.8127397 ] ] } },
{ "type": "Feature", "properties": { "highway": "secondary" }, "geometry": { "type": "LineString", "coordinates": [ [ -73.9670504, 40.8076278 ], [ -73.9669874, 40.8077232 ] ] } },
{ "type": "Feature", "properties": { "highway": "secondary_link" }, "geometry": { "type": "LineString", "coordinates": [ [ -73.9670504, 40.8076278 ], [ -73.966962, 40.8075991 ] ] } },
{ "type": "Feature", "properties": { "highway": "secondary" }, "geometry": { "type": "LineString", "coordinates": [ [ -73.9670504, 40.8076278 ], [ -73.9670906, 40.8075687 ] ] } },
{ "type": "Feature", "properties": { "highway": "footway" }, "geometry": { "type": "LineString", "coordinates": [ [ -73.9679136, 40.8058293 ], [ -73.9679861, 40.8058511 ] ] } }
]
}
